APRIZESAT 2             
1 28366U 04025A   26167.03227463  .00000128  00000+0  53109-4 0  9997
2 28366  98.1013 333.0780 0104317 253.3772 105.5942 14.38035399151477
SAUDICOMSAT 1           
1 28369U 04025D   26166.98505361  .00000323  00000+0  85012-4 0  9994
2 28369  98.5771 177.0841 0032732  29.2539 331.0481 14.55472972163952
SAUDICOMSAT 2           
1 28370U 04025E   26167.02100760  .00000205  00000+0  64805-4 0  9992
2 28370  98.6641 179.2342 0054160 263.1042  96.3988 14.49980671159937
APRIZESAT 1             
1 28372U 04025G   26166.98519333  .00000189  00000+0  58557-4 0  9996
2 28372  98.6303 177.6781 0045031 157.4589 202.8597 14.51776454161737
NANOSAT-1               
1 28493U 04049B   26166.95227384  .00000860  00000+0  12062-3 0  9991
2 28493  98.2274 303.5831 0002875 308.2923  51.8029 14.80157477155260
SAUDICOMSAT 7           
1 31119U 07012C   26166.88429491  .00000358  00000+0  73380-4 0  9991
2 31119  98.3778 140.9894 0055197 199.3194 160.5917 14.66109160 22240
SAUDICOMSAT 6           
1 31121U 07012E   26166.85884014  .00000506  00000+0  10645-3 0  9996
2 31121  98.4098 134.3505 0071146 331.9466  27.7909 14.62556968 19994
SAUDICOMSAT 5           
1 31124U 07012H   26167.20033083  .00000513  00000+0  96752-4 0  9993
2 31124  98.3489 142.0591 0048420 127.7377 232.8230 14.68155275 23456
SAUDICOMSAT 3           
1 31125U 07012J   26167.16261770  .00000737  00000+0  12815-3 0  9990
2 31125  98.3144 142.5690 0040284  56.3821 304.1219 14.70704352 24675
SAUDICOMSAT 4           
1 31127U 07012L   26167.19813034  .00000379  00000+0  79581-4 0  9997
2 31127  98.3983 139.7484 0062058 261.3780  98.0387 14.64511444 21147
APRIZESAT 4             
1 35684U 09041D   26167.17813913  .00000579  00000+0  75794-4 0  9991
2 35684  98.1413 242.4785 0042466 326.3943  33.4578 14.83878253911211
APRIZESAT 3             
1 35686U 09041F   26166.96209743  .00001496  00000+0  13326-3 0  9990
2 35686  98.2058 320.1272 0062774  71.7012 289.1024 14.96237754916193
S-NET D                 
1 43186U 18014G   26167.01041402  .00004623  00000+0  23946-3 0  9991
2 43186  97.5368  71.8087 0009043  34.0156 326.1655 15.16664081458584
S-NET B                 
1 43187U 18014H   26166.69195685  .00004610  00000+0  23898-3 0  9990
2 43187  97.5375  71.4791 0009593  30.0139 330.1642 15.16631190458539
S-NET A                 
1 43188U 18014J   26166.67941938  .00004720  00000+0  24433-3 0  9997
2 43188  97.5384  71.6748 0009496  30.7169 329.4618 15.16669188458538
S-NET C                 
1 43189U 18014K   26166.69582504  .00004628  00000+0  23990-3 0  9994
2 43189  97.5400  71.7655 0010630  22.5845 337.5854 15.16623430457089
SALSAT                  
1 46495U 20068K   26166.96813813  .00006820  00000+0  23912-3 0  9999
2 46495  97.8844 169.9584 0008114 313.3675  46.6887 15.29785415315177
OOV-CUBE (TUBSAT-30)    
1 60240U 24128F   26166.59161287  .00001776  00000+0  14516-3 0  9999
2 60240  61.9945 231.1374 0044790 133.3400 227.1438 15.02768887105877
LPNTSAT-001 (IOD-1)     
1 68408U 26065A   26167.15423894  .00002456  00000+0  12182-3 0  9996
2 68408  97.4017  47.6861 0016768  14.3987 345.7722 15.18533629 12105
